[{"OBJECT_NAME":"GEOSAT","OBJECT_ID":"1985-021A","EPOCH":"2026-03-03T03:16:55.511904","MEAN_MOTION":14.39906434,"ECCENTRICITY":0.0002481,"INCLINATION":108.0476,"RA_OF_ASC_NODE":220.71,"ARG_OF_PERICENTER":261.6992,"MEAN_ANOMALY":98.3869,"EPHEMERIS_TYPE":0,"CLASSIFICATION_TYPE":"U","NORAD_CAT_ID":15595,"ELEMENT_SET_NO":999,"REV_AT_EPOCH":14750,"BSTAR":0.00013947,"MEAN_MOTION_DOT":3.03e-6,"MEAN_MOTION_DDOT":0},{"OBJECT_NAME":"EUTELSAT 1-F4 (ECS 4)","OBJECT_ID":"1987-078B","EPOCH":"2026-03-02T11:29:31.083936","MEAN_MOTION":0.98689827,"ECCENTRICITY":0.00115205,"INCLINATION":13.9041,"RA_OF_ASC_NODE":342.869,"ARG_OF_PERICENTER":24.8481,"MEAN_ANOMALY":164.4752,"EPHEMERIS_TYPE":0,"CLASSIFICATION_TYPE":"U","NORAD_CAT_ID":18351,"ELEMENT_SET_NO":999,"REV_AT_EPOCH":12570,"BSTAR":0,"MEAN_MOTION_DOT":-1.14e-6,"MEAN_MOTION_DDOT":0},{"OBJECT_NAME":"PACSAT (AO-16)","OBJECT_ID":"1990-005D","EPOCH":"2026-03-03T02:41:14.023104","MEAN_MOTION":14.33898753,"ECCENTRICITY":0.0010651,"INCLINATION":98.8658,"RA_OF_ASC_NODE":95.2402,"ARG_OF_PERICENTER":177.3768,"MEAN_ANOMALY":253.3772,"EPHEMERIS_TYPE":0,"CLASSIFICATION_TYPE":"U","NORAD_CAT_ID":20439,"ELEMENT_SET_NO":999,"REV_AT_EPOCH":88673,"BSTAR":7.9324e-5,"MEAN_MOTION_DOT":1.75e-6,"MEAN_MOTION_DDOT":0},{"OBJECT_NAME":"LUSAT (LO-19)","OBJECT_ID":"1990-005G","EPOCH":"2026-03-02T23:49:37.996896","MEAN_MOTION":14.34084621,"ECCENTRICITY":0.0012077,"INCLINATION":98.8939,"RA_OF_ASC_NODE":80.8301,"ARG_OF_PERICENTER":153.1061,"MEAN_ANOMALY":207.0751,"EPHEMERIS_TYPE":0,"CLASSIFICATION_TYPE":"U","NORAD_CAT_ID":20442,"ELEMENT_SET_NO":999,"REV_AT_EPOCH":88717,"BSTAR":8.208e-5,"MEAN_MOTION_DOT":1.83e-6,"MEAN_MOTION_DDOT":0},{"OBJECT_NAME":"IRS-1B","OBJECT_ID":"1991-061A","EPOCH":"2026-03-03T01:04:34.819680","MEAN_MOTION":13.9785978,"ECCENTRICITY":0.0023627,"INCLINATION":99.4143,"RA_OF_ASC_NODE":67.3354,"ARG_OF_PERICENTER":292.74,"MEAN_ANOMALY":137.6796,"EPHEMERIS_TYPE":0,"CLASSIFICATION_TYPE":"U","NORAD_CAT_ID":21688,"ELEMENT_SET_NO":999,"REV_AT_EPOCH":65366,"BSTAR":-9.6658e-6,"MEAN_MOTION_DOT":-6.1e-7,"MEAN_MOTION_DDOT":0},{"OBJECT_NAME":"COSMOS 2197","OBJECT_ID":"1992-042A","EPOCH":"2026-03-03T02:48:35.375040","MEAN_MOTION":12.64247974,"ECCENTRICITY":0.0012918,"INCLINATION":82.5933,"RA_OF_ASC_NODE":296.7322,"ARG_OF_PERICENTER":152.0073,"MEAN_ANOMALY":324.2248,"EPHEMERIS_TYPE":0,"CLASSIFICATION_TYPE":"U","NORAD_CAT_ID":22034,"ELEMENT_SET_NO":999,"REV_AT_EPOCH":55188,"BSTAR":0.00026994,"MEAN_MOTION_DOT":6.0e-7,"MEAN_MOTION_DDOT":0},{"OBJECT_NAME":"PEGASUS R/B","OBJECT_ID":"1993-009C","EPOCH":"2026-03-03T03:50:18.415104","MEAN_MOTION":14.57807314,"ECCENTRICITY":0.0044227,"INCLINATION":24.9786,"RA_OF_ASC_NODE":37.1623,"ARG_OF_PERICENTER":43.8317,"MEAN_ANOMALY":316.5693,"EPHEMERIS_TYPE":0,"CLASSIFICATION_TYPE":"U","NORAD_CAT_ID":22491,"ELEMENT_SET_NO":999,"REV_AT_EPOCH":75414,"BSTAR":0.00027086,"MEAN_MOTION_DOT":1.482e-5,"MEAN_MOTION_DDOT":0},{"OBJECT_NAME":"EYESAT A (AO-27)","OBJECT_ID":"1993-061C","EPOCH":"2026-03-03T03:13:02.032320","MEAN_MOTION":14.30910431,"ECCENTRICITY":0.0009235,"INCLINATION":98.6996,"RA_OF_ASC_NODE":129.5389,"ARG_OF_PERICENTER":56.656,"MEAN_ANOMALY":303.5506,"EPHEMERIS_TYPE":0,"CLASSIFICATION_TYPE":"U","NORAD_CAT_ID":22825,"ELEMENT_SET_NO":999,"REV_AT_EPOCH":69183,"BSTAR":6.9033e-5,"MEAN_MOTION_DOT":1.37e-6,"MEAN_MOTION_DDOT":0},{"OBJECT_NAME":"ITAMSAT (IO-26)","OBJECT_ID":"1993-061D","EPOCH":"2026-03-03T03:28:43.845888","MEAN_MOTION":14.31334248,"ECCENTRICITY":0.000954,"INCLINATION":98.6944,"RA_OF_ASC_NODE":129.4565,"ARG_OF_PERICENTER":41.2643,"MEAN_ANOMALY":318.9259,"EPHEMERIS_TYPE":0,"CLASSIFICATION_TYPE":"U","NORAD_CAT_ID":22826,"ELEMENT_SET_NO":999,"REV_AT_EPOCH":69214,"BSTAR":7.6911e-5,"MEAN_MOTION_DOT":1.59e-6,"MEAN_MOTION_DDOT":0},{"OBJECT_NAME":"RADIO ROSTO (RS15)","OBJECT_ID":"1994-085A","EPOCH":"2026-03-03T03:10:51.360960","MEAN_MOTION":11.27583793,"ECCENTRICITY":0.015243,"INCLINATION":64.8146,"RA_OF_ASC_NODE":114.7389,"ARG_OF_PERICENTER":23.2657,"MEAN_ANOMALY":337.5073,"EPHEMERIS_TYPE":0,"CLASSIFICATION_TYPE":"U","NORAD_CAT_ID":23439,"ELEMENT_SET_NO":999,"REV_AT_EPOCH":28394,"BSTAR":0.00084009,"MEAN_MOTION_DOT":-1.3e-7,"MEAN_MOTION_DDOT":0},{"OBJECT_NAME":"JAS-2 (FO-29)","OBJECT_ID":"1996-046B","EPOCH":"2026-03-03T03:22:36.499008","MEAN_MOTION":13.53268408,"ECCENTRICITY":0.0350107,"INCLINATION":98.5392,"RA_OF_ASC_NODE":285.4459,"ARG_OF_PERICENTER":11.7524,"MEAN_ANOMALY":349.1529,"EPHEMERIS_TYPE":0,"CLASSIFICATION_TYPE":"U","NORAD_CAT_ID":24278,"ELEMENT_SET_NO":999,"REV_AT_EPOCH":45882,"BSTAR":1.9826e-5,"MEAN_MOTION_DOT":-1.6e-7,"MEAN_MOTION_DDOT":0},{"OBJECT_NAME":"FORTE","OBJECT_ID":"1997-047A","EPOCH":"2026-03-02T23:14:39.315840","MEAN_MOTION":14.27894121,"ECCENTRICITY":0.0019412,"INCLINATION":69.951,"RA_OF_ASC_NODE":253.9298,"ARG_OF_PERICENTER":59.6965,"MEAN_ANOMALY":300.6074,"EPHEMERIS_TYPE":0,"CLASSIFICATION_TYPE":"U","NORAD_CAT_ID":24920,"ELEMENT_SET_NO":999,"REV_AT_EPOCH":48352,"BSTAR":0.00012185,"MEAN_MOTION_DOT":2.45e-6,"MEAN_MOTION_DDOT":0},{"OBJECT_NAME":"NOAA 15","OBJECT_ID":"1998-030A","EPOCH":"2026-03-03T02:35:48.694272","MEAN_MOTION":14.27109374,"ECCENTRICITY":0.0009217,"INCLINATION":98.5168,"RA_OF_ASC_NODE":85.5613,"ARG_OF_PERICENTER":301.7359,"MEAN_ANOMALY":58.2923,"EPHEMERIS_TYPE":0,"CLASSIFICATION_TYPE":"U","NORAD_CAT_ID":25338,"ELEMENT_SET_NO":999,"REV_AT_EPOCH":44616,"BSTAR":8.8031e-5,"MEAN_MOTION_DOT":1.72e-6,"MEAN_MOTION_DDOT":0},{"OBJECT_NAME":"TECHSAT 1B (GO-32)","OBJECT_ID":"1998-043D","EPOCH":"2026-03-02T23:55:09.686496","MEAN_MOTION":14.24403864,"ECCENTRICITY":0.0001861,"INCLINATION":99.0019,"RA_OF_ASC_NODE":52.1056,"ARG_OF_PERICENTER":130.2655,"MEAN_ANOMALY":229.8686,"EPHEMERIS_TYPE":0,"CLASSIFICATION_TYPE":"U","NORAD_CAT_ID":25397,"ELEMENT_SET_NO":999,"REV_AT_EPOCH":43621,"BSTAR":6.366e-5,"MEAN_MOTION_DOT":1.01e-6,"MEAN_MOTION_DDOT":0},{"OBJECT_NAME":"ISS (ZARYA)","OBJECT_ID":"1998-067A","EPOCH":"2026-03-02T22:19:59.515680","MEAN_MOTION":15.48408287,"ECCENTRICITY":0.0008215,"INCLINATION":51.6319,"RA_OF_ASC_NODE":105.7724,"ARG_OF_PERICENTER":150.8374,"MEAN_ANOMALY":209.3074,"EPHEMERIS_TYPE":0,"CLASSIFICATION_TYPE":"U","NORAD_CAT_ID":25544,"ELEMENT_SET_NO":999,"REV_AT_EPOCH":55528,"BSTAR":0.00018075,"MEAN_MOTION_DOT":9.325e-5,"MEAN_MOTION_DDOT":0},{"OBJECT_NAME":"ORSTED","OBJECT_ID":"1999-008B","EPOCH":"2026-03-02T18:16:09.863328","MEAN_MOTION":14.51670186,"ECCENTRICITY":0.01325065,"INCLINATION":96.4806,"RA_OF_ASC_NODE":353.4602,"ARG_OF_PERICENTER":167.2612,"MEAN_ANOMALY":193.1992,"EPHEMERIS_TYPE":0,"CLASSIFICATION_TYPE":"U","NORAD_CAT_ID":25635,"ELEMENT_SET_NO":999,"REV_AT_EPOCH":42652,"BSTAR":0.00014986666,"MEAN_MOTION_DOT":6.42e-6,"MEAN_MOTION_DDOT":0},{"OBJECT_NAME":"LANDSAT 7","OBJECT_ID":"1999-020A","EPOCH":"2026-03-03T03:52:58.159200","MEAN_MOTION":14.63811367,"ECCENTRICITY":0.0001753,"INCLINATION":97.8606,"RA_OF_ASC_NODE":70.6549,"ARG_OF_PERICENTER":85.8338,"MEAN_ANOMALY":347.7502,"EPHEMERIS_TYPE":0,"CLASSIFICATION_TYPE":"U","NORAD_CAT_ID":25682,"ELEMENT_SET_NO":999,"REV_AT_EPOCH":43033,"BSTAR":0.00012854,"MEAN_MOTION_DOT":6.26e-6,"MEAN_MOTION_DDOT":0},{"OBJECT_NAME":"ORBCOMM FM36","OBJECT_ID":"1999-065E","EPOCH":"2026-03-03T00:47:57.061248","MEAN_MOTION":14.38961792,"ECCENTRICITY":0.0002205,"INCLINATION":45.0394,"RA_OF_ASC_NODE":303.4471,"ARG_OF_PERICENTER":150.9487,"MEAN_ANOMALY":209.1485,"EPHEMERIS_TYPE":0,"CLASSIFICATION_TYPE":"U","NORAD_CAT_ID":25984,"ELEMENT_SET_NO":999,"REV_AT_EPOCH":37169,"BSTAR":0.00046755,"MEAN_MOTION_DOT":1.313e-5,"MEAN_MOTION_DDOT":0},{"OBJECT_NAME":"DMSP 5D-3 F15 (USA 147)","OBJECT_ID":"1999-067A","EPOCH":"2026-03-03T05:02:58.260192","MEAN_MOTION":14.17517176,"ECCENTRICITY":0.000907,"INCLINATION":99.0108,"RA_OF_ASC_NODE":99.3765,"ARG_OF_PERICENTER":307.8657,"MEAN_ANOMALY":132.3734,"EPHEMERIS_TYPE":0,"CLASSIFICATION_TYPE":"U","NORAD_CAT_ID":25991,"ELEMENT_SET_NO":999,"REV_AT_EPOCH":35563,"BSTAR":0.00012359,"MEAN_MOTION_DOT":2.05e-6,"MEAN_MOTION_DDOT":0},{"OBJECT_NAME":"OPAL (OO-38)","OBJECT_ID":"2000-004C","EPOCH":"2026-03-02T17:12:49.397760","MEAN_MOTION":14.37920431,"ECCENTRICITY":0.00355908,"INCLINATION":100.189,"RA_OF_ASC_NODE":338.935,"ARG_OF_PERICENTER":337.2036,"MEAN_ANOMALY":22.7564,"EPHEMERIS_TYPE":0,"CLASSIFICATION_TYPE":"U","NORAD_CAT_ID":26063,"ELEMENT_SET_NO":999,"REV_AT_EPOCH":36798,"BSTAR":9.5150984e-5,"MEAN_MOTION_DOT":2.3e-6,"MEAN_MOTION_DDOT":0},{"OBJECT_NAME":"IMAGE","OBJECT_ID":"2000-017A","EPOCH":"2026-02-26T23:52:25.757184","MEAN_MOTION":1.68665192,"ECCENTRICITY":0.75155432,"INCLINATION":94.1309,"RA_OF_ASC_NODE":313.8802,"ARG_OF_PERICENTER":300.3972,"MEAN_ANOMALY":6.7428,"EPHEMERIS_TYPE":0,"CLASSIFICATION_TYPE":"U","NORAD_CAT_ID":26113,"ELEMENT_SET_NO":999,"REV_AT_EPOCH":15964,"BSTAR":0.014476993,"MEAN_MOTION_DOT":1.25e-6,"MEAN_MOTION_DDOT":0},{"OBJECT_NAME":"CLUSTER II-FM7 (SAMBA)","OBJECT_ID":"2000-041A","EPOCH":"2026-03-04T06:04:28.507872","MEAN_MOTION":0.44785609,"ECCENTRICITY":0.89087774,"INCLINATION":148.992,"RA_OF_ASC_NODE":34.5676,"ARG_OF_PERICENTER":250.6745,"MEAN_ANOMALY":359.7226,"EPHEMERIS_TYPE":0,"CLASSIFICATION_TYPE":"U","NORAD_CAT_ID":26410,"ELEMENT_SET_NO":999,"REV_AT_EPOCH":1983,"BSTAR":0,"MEAN_MOTION_DOT":3.639e-5,"MEAN_MOTION_DDOT":0},{"OBJECT_NAME":"CLUSTER II-FM8 (TANGO)","OBJECT_ID":"2000-045B","EPOCH":"2026-02-18T01:30:32.809536","MEAN_MOTION":0.44405995,"ECCENTRICITY":0.88900451,"INCLINATION":149.0711,"RA_OF_ASC_NODE":33.5376,"ARG_OF_PERICENTER":249.457,"MEAN_ANOMALY":359.4916,"EPHEMERIS_TYPE":0,"CLASSIFICATION_TYPE":"U","NORAD_CAT_ID":26464,"ELEMENT_SET_NO":999,"REV_AT_EPOCH":1976,"BSTAR":0,"MEAN_MOTION_DOT":4.776e-5,"MEAN_MOTION_DDOT":0},{"OBJECT_NAME":"MEGSAT-1","OBJECT_ID":"2000-057B","EPOCH":"2026-03-03T04:06:07.653888","MEAN_MOTION":15.04776556,"ECCENTRICITY":0.0037775,"INCLINATION":64.5503,"RA_OF_ASC_NODE":48.6696,"ARG_OF_PERICENTER":295.3015,"MEAN_ANOMALY":64.419,"EPHEMERIS_TYPE":0,"CLASSIFICATION_TYPE":"U","NORAD_CAT_ID":26546,"ELEMENT_SET_NO":999,"REV_AT_EPOCH":38170,"BSTAR":0.00038889,"MEAN_MOTION_DOT":5.416e-5,"MEAN_MOTION_DDOT":0}]
